NORAD_CAT_ID,OBJECT_NAME,OBJECT_TYPE,EPOCH,MEAN_MOTION,ECCENTRICITY,INCLINATION,RA_OF_ASC_NODE,ARG_OF_PERICENTER,MEAN_ANOMALY,BSTAR,MEAN_MOTION_DOT,MEAN_MOTION_DDOT,TLE_LINE0,TLE_LINE1,TLE_LINE2,SEMIMAJOR_AXIS,PERIOD,APOGEE,PERIGEE,DECAYED
54098.0,STARLINK-5217,PAYLOAD,2023-09-11 07:33:56,15.08844105,0.0001314,53.2173,100.5804,86.7958,273.3185,9.9714e-06,-1.29e-06,0.0,0 STARLINK-5217,1 54098U 22136AZ  23254.31523574 -.00000129  00000-0  99714-5 0  9994,2 54098  53.2173 100.5804 0001314  86.7958 273.3185 15.08844105 49557,6917.868,95.437,540.642,538.824,0.0
54098.0,STARLINK-5217,PAYLOAD,2023-09-11 23:27:47,15.08847523,0.0001364,53.2177,97.6055,88.2465,271.8683,9.4509e-05,1.217e-05,0.0,0 STARLINK-5217,1 54098U 22136AZ  23254.97763125  .00001217  00000-0  94509-4 0  9998,2 54098  53.2177  97.6055 0001364  88.2465 271.8683 15.08847523 49654,6917.857,95.437,540.666,538.779,0.0
54098.0,STARLINK-5217,PAYLOAD,2023-09-12 16:57:02,15.08837824,0.0001372,53.2183,94.3333,89.6803,270.4346,3.2506e-05,2.29e-06,0.0,0 STARLINK-5217,1 54098U 22136AZ  23255.70627983  .00000229  00000-0  32506-4 0  9992,2 54098  53.2183  94.3333 0001372  89.6803 270.4346 15.08837824 50234,6917.887,95.438,540.701,538.803,0.0
54098.0,STARLINK-5217,PAYLOAD,2023-09-12 20:07:48,15.08840421,0.0001381,53.2184,93.7385,90.0682,270.0469,5.3467e-05,5.63e-06,0.0,0 STARLINK-5217,1 54098U 22136AZ  23255.83875786  .00000563  00000-0  53467-4 0  9992,2 54098  53.2184  93.7385 0001381  90.0682 270.0469 15.08840421 49783,6917.879,95.438,540.699,538.789,0.0
54098.0,STARLINK-5217,PAYLOAD,2023-09-12 21:43:11,15.08841127,0.0001387,53.2185,93.4411,90.3102,269.8049,5.7614e-05,6.29e-06,0.0,0 STARLINK-5217,1 54098U 22136AZ  23255.90499723  .00000629  00000-0  57614-4 0  9994,2 54098  53.2185  93.4411 0001387  90.3102 269.8049 15.08841127 49792,6917.877,95.437,540.701,538.782,0.0
54098.0,STARLINK-5217,PAYLOAD,2023-09-13 18:23:11,15.08848743,0.0001381,53.2184,89.575,92.4025,267.7126,9.638e-05,1.247e-05,0.0,0 STARLINK-5217,1 54098U 22136AZ  23256.76610938  .00001247  00000-0  96380-4 0  9992,2 54098  53.2184  89.5750 0001381  92.4025 267.7126 15.08848743 50396,6917.854,95.437,540.674,538.763,0.0
54098.0,STARLINK-5217,PAYLOAD,2023-09-13 19:58:34,15.0885215,0.0001271,53.2181,89.2807,91.6557,268.458,0.00012739,1.741e-05,0.0,0 STARLINK-5217,1 54098U 22136AZ  23256.83234658  .00001741  00000-0  12739-3 0  9995,2 54098  53.2181  89.2807 0001271  91.6557 268.4580 15.08852150 49939,6917.843,95.437,540.588,538.829,0.0
54098.0,STARLINK-5217,PAYLOAD,2023-09-13 23:09:20,15.08855414,0.0001236,53.2181,88.6854,88.8873,271.2261,0.00012938,1.773e-05,0.0,0 STARLINK-5217,1 54098U 22136AZ  23256.96482402  .00001773  00000-0  12938-3 0  9997,2 54098  53.2181  88.6854 0001236  88.8873 271.2261 15.08855414 50424,6917.833,95.437,540.553,538.843,0.0
54098.0,STARLINK-5217,PAYLOAD,2023-09-14 11:52:27,15.08832248,0.0001688,53.2182,86.3048,93.289,266.8296,4.4446e-05,4.19e-06,0.0,0 STARLINK-5217,1 54098U 22136AZ  23257.49476394  .00000419  00000-0  44446-4 0  9995,2 54098  53.2182  86.3048 0001688  93.2890 266.8296 15.08832248 50030,6917.904,95.438,540.937,538.601,0.0
54098.0,STARLINK-5217,PAYLOAD,2023-09-14 18:13:59,15.08828963,0.0001481,53.2174,85.114,108.9835,251.1317,-0.00012395,-2.259e-05,0.0,0 STARLINK-5217,1 54098U 22136AZ  23257.75972170 -.00002259  00000-0 -12395-3 0  9990,2 54098  53.2174  85.1140 0001481 108.9835 251.1317 15.08828963 50541,6917.914,95.438,540.804,538.755,0.0
54098.0,STARLINK-5217,PAYLOAD,2023-09-14 19:49:23,15.08826586,0.0001181,53.2168,84.8202,83.9231,276.1896,-0.00016479,-2.908e-05,0.0,0 STARLINK-5217,1 54098U 22136AZ  23257.82596397 -.00002908  00000-0 -16479-3 0  9999,2 54098  53.2168  84.8202 0001181  83.9231 276.1896 15.08826586 50085,6917.921,95.438,540.603,538.969,0.0
54098.0,STARLINK-5217,PAYLOAD,2023-09-15 11:43:14,15.08834489,0.0001177,53.2169,81.8449,77.0966,283.0158,-9.5382e-05,-1.805e-05,0.0,0 STARLINK-5217,1 54098U 22136AZ  23258.48836426 -.00001805  00000-0 -95382-4 0  9998,2 54098  53.2169  81.8449 0001177  77.0966 283.0158 15.08834489 50180,6917.897,95.438,540.576,538.948,0.0
54098.0,STARLINK-5217,PAYLOAD,2023-09-15 18:04:46,15.088416,0.0001185,53.2168,80.656,77.8827,282.2298,4.9156e-05,4.95e-06,0.0,0 STARLINK-5217,1 54098U 22136AZ  23258.75332138  .00000495  00000-0  49156-4 0  9999,2 54098  53.2168  80.6560 0001185  77.8827 282.2298 15.08841600 50698,6917.875,95.437,540.56,538.921,0.0
54098.0,STARLINK-5217,PAYLOAD,2023-09-16 11:34:01,15.08839561,0.0001187,53.2166,77.3853,81.5635,278.5492,0.0002882,4.302e-05,0.0,0 STARLINK-5217,1 54098U 22136AZ  23259.48196621  .00004302  00000-0  28820-3 0  9990,2 54098  53.2166  77.3853 0001187  81.5635 278.5492 15.08839561 50333,6917.882,95.438,540.568,538.926,0.0
54098.0,STARLINK-5217,PAYLOAD,2023-09-16 19:30:57,15.08849079,0.0001184,53.2167,75.8987,80.8879,279.2247,0.00042136,6.426e-05,0.0,0 STARLINK-5217,1 54098U 22136AZ  23259.81316374  .00006426  00000-0  42136-3 0  9991,2 54098  53.2167  75.8987 0001184  80.8879 279.2247 15.08849079 50852,6917.853,95.437,540.537,538.899,0.0
54098.0,STARLINK-5217,PAYLOAD,2023-09-17 11:24:48,15.08847185,0.0001226,53.2166,72.9257,80.5641,279.5489,0.00029619,4.43e-05,0.0,0 STARLINK-5217,1 54098U 22136AZ  23260.47556337  .00004430  00000-0  29619-3 0  9994,2 54098  53.2166  72.9257 0001226  80.5641 279.5489 15.08847185 50486,6917.858,95.437,540.572,538.875,0.0
54098.0,STARLINK-5217,PAYLOAD,2023-09-17 17:46:21,15.08851688,0.0001239,53.217,71.7361,77.0611,283.0519,0.00027978,4.169e-05,0.0,0 STARLINK-5217,1 54098U 22136AZ  23260.74052149  .00004169  00000-0  27978-3 0  9991,2 54098  53.2170  71.7361 0001239  77.0611 283.0519 15.08851688 50999,6917.845,95.437,540.567,538.853,0.0
54098.0,STARLINK-5217,PAYLOAD,2023-09-18 11:15:35,15.08837839,0.0001188,53.2171,68.4669,83.0596,277.0532,3.2282e-05,2.26e-06,0.0,0 STARLINK-5217,1 54098U 22136AZ  23261.46916602  .00000226  00000-0  32282-4 0  9999,2 54098  53.2171  68.4669 0001188  83.0596 277.0532 15.08837839 51100,6917.887,95.438,540.574,538.93,0.0
54098.0,STARLINK-5217,PAYLOAD,2023-09-18 17:37:08,15.08837467,0.0001174,53.2175,67.2771,85.1068,275.0058,2.306e-05,7.9e-07,0.0,0 STARLINK-5217,1 54098U 22136AZ  23261.73412742  .00000079  00000-0  23060-4 0  9995,2 54098  53.2175  67.2771 0001174  85.1068 275.0058 15.08837467 50676,6917.888,95.438,540.565,538.941,0.0
54098.0,STARLINK-5217,PAYLOAD,2023-09-19 17:27:54,15.0885124,0.0001435,53.2187,62.8162,91.3749,268.7408,0.00021967,3.211e-05,0.0,0 STARLINK-5217,1 54098U 22136AZ  23262.72771962  .00003211  00000-0  21967-3 0  9991,2 54098  53.2187  62.8162 0001435  91.3749 268.7408 15.08851240 51291,6917.846,95.437,540.704,538.718,0.0
54098.0,STARLINK-5217,PAYLOAD,2023-09-20 10:57:10,15.08831507,0.0001707,53.2187,59.5388,135.1224,224.9906,4.9696e-05,5.03e-06,0.0,0 STARLINK-5217,1 54098U 22136AZ  23263.45636955  .00000503  00000-0  49696-4 0  9995,2 54098  53.2187  59.5388 0001707 135.1224 224.9906 15.08831507 51405,6917.906,95.438,540.952,538.59,0.0
54098.0,STARLINK-5217,PAYLOAD,2023-09-20 14:07:56,15.08830888,0.0001664,53.2177,58.9473,115.5836,244.5328,-1.9607e-05,-6e-06,0.0,0 STARLINK-5217,1 54098U 22136AZ  23263.58885066 -.00000600  00000-0 -19607-4 0  9997,2 54098  53.2177  58.9473 0001664 115.5836 244.5328 15.08830888 50951,6917.908,95.438,540.924,538.622,0.0
54098.0,STARLINK-5217,PAYLOAD,2023-09-20 18:54:06,15.08830578,0.0001328,53.2183,58.057,99.5019,260.6123,-4.0677e-05,-9.35e-06,0.0,0 STARLINK-5217,1 54098U 22136AZ  23263.78757297 -.00000935  00000-0 -40677-4 0  9995,2 54098  53.2183  58.0570 0001328  99.5019 260.6123 15.08830578 50989,6917.909,95.438,540.693,538.855,0.0
54098.0,STARLINK-5217,PAYLOAD,2023-09-21 10:47:57,15.08841115,0.0001287,53.2187,55.0829,104.2837,255.8298,0.0001514,2.123e-05,0.0,0 STARLINK-5217,1 54098U 22136AZ  23264.44997005  .00002123  00000-0  15140-3 0  9997,2 54098  53.2187  55.0829 0001287 104.2837 255.8298 15.08841115 51555,6917.877,95.437,540.632,538.852,0.0
54098.0,STARLINK-5217,PAYLOAD,2023-09-21 18:44:52,15.08849764,0.0001258,53.2189,53.5956,99.1953,260.9181,0.00044988,6.881e-05,0.0,0 STARLINK-5217,1 54098U 22136AZ  23264.78116841  .00006881  00000-0  44988-3 0  9992,2 54098  53.2189  53.5956 0001258  99.1953 260.9181 15.08849764 51130,6917.851,95.437,540.586,538.845,0.0
54098.0,STARLINK-5217,PAYLOAD,2023-09-22 13:49:30,15.08845674,0.0001258,53.2184,50.0279,100.2483,259.8651,0.00024509,3.615e-05,0.0,0 STARLINK-5217,1 54098U 22136AZ  23265.57604918  .00003615  00000-0  24509-3 0  9996,2 54098  53.2184  50.0279 0001258 100.2483 259.8651 15.08845674 51255,6917.863,95.437,540.598,538.858,0.0
54098.0,STARLINK-5217,PAYLOAD,2023-09-22 17:00:16,15.08849326,0.0001326,53.2186,49.4356,106.9042,253.2096,0.00028716,4.286e-05,0.0,0 STARLINK-5217,1 54098U 22136AZ  23265.70852752  .00004286  00000-0  28716-3 0  9991,2 54098  53.2186  49.4356 0001326 106.9042 253.2096 15.08849326 51748,6917.852,95.437,540.634,538.8,0.0
54098.0,STARLINK-5217,PAYLOAD,2023-09-22 20:11:02,15.08853292,0.0001383,53.2177,48.8392,104.9526,255.162,0.00031779,4.775e-05,0.0,0 STARLINK-5217,1 54098U 22136AZ  23265.84100544  .00004775  00000-0  31779-3 0  9997,2 54098  53.2177  48.8392 0001383 104.9526 255.1620 15.08853292 51290,6917.84,95.437,540.661,538.748,0.0
54098.0,STARLINK-5217,PAYLOAD,2023-09-23 08:54:08,15.08843303,0.0001716,53.2182,46.4604,94.7122,265.4066,6.6681e-05,7.73e-06,0.0,0 STARLINK-5217,1 54098U 22136AZ  23266.37092828  .00000773  00000-0  66681-4 0  9996,2 54098  53.2182  46.4604 0001716  94.7122 265.4066 15.08843303 51845,6917.87,95.437,540.922,538.548,0.0
54098.0,STARLINK-5217,PAYLOAD,2023-09-23 13:40:17,15.0884562,0.000165,53.2181,45.5685,120.8484,239.2671,0.0001107,1.474e-05,0.0,0 STARLINK-5217,1 54098U 22136AZ  23266.56964538  .00001474  00000-0  11070-3 0  9993,2 54098  53.2181  45.5685 0001650 120.8484 239.2671 15.08845620 51409,6917.863,95.437,540.87,538.587,0.0
